[
{
"CCSDS_OMM_VERS": "2.0",
"COMMENT": "GENERATED VIA SPACE-TRACK.ORG API",
"CREATION_DATE": "2025-03-20T19:29:49",
"ORIGINATOR": "18 SPCS",
"OBJECT_NAME": "COSMOS 2564 (GLONASS)",
"OBJECT_ID": "2022-161A",
"CENTER_NAME": "EARTH",
"REF_FRAME": "TEME",
"TIME_SYSTEM": "UTC",
"MEAN_ELEMENT_THEORY": "SGP4",
"EPOCH": "2025-03-19T23:56:34.228032",
"MEAN_MOTION": "2.13102059",
"ECCENTRICITY": "0.00090680",
"INCLINATION": "64.7392",
"RA_OF_ASC_NODE": "207.7930",
"ARG_OF_PERICENTER": "211.5735",
"MEAN_ANOMALY": "148.3588",
"EPHEMERIS_TYPE": "0",
"CLASSIFICATION_TYPE": "U",
"NORAD_CAT_ID": "54377",
"ELEMENT_SET_NO": "999",
"REV_AT_EPOCH": "1795",
"BSTAR": "0.00000000000000",
"MEAN_MOTION_DOT": "0.00000038",
"MEAN_MOTION_DDOT": "0.0000000000000",
"SEMIMAJOR_AXIS": "25508.020",
"PERIOD": "675.733",
"APOAPSIS": "19153.015",
"PERIAPSIS": "19106.754",
"OBJECT_TYPE": "PAYLOAD",
"RCS_SIZE": "LARGE",
"COUNTRY_CODE": "CIS",
"LAUNCH_DATE": "2022-11-28",
"SITE": "PKMTR",
"DECAY_DATE": null,
"FILE": "4675094",
"GP_ID": "283588938",
"TLE_LINE0": "0 COSMOS 2564 (GLONASS)",
"TLE_LINE1": "1 54377U 22161A   25078.99761838  .00000038  00000-0  00000-0 0  9992",
"TLE_LINE2": "2 54377  64.7392 207.7930 0009068 211.5735 148.3588  2.13102059 17956"
},
{
"CCSDS_OMM_VERS": "2.0",
"COMMENT": "GENERATED VIA SPACE-TRACK.ORG API",
"CREATION_DATE": "2025-03-20T19:29:49",
"ORIGINATOR": "18 SPCS",
"OBJECT_NAME": "COSMOS 2545 (GLONASS)",
"OBJECT_ID": "2020-018A",
"CENTER_NAME": "EARTH",
"REF_FRAME": "TEME",
"TIME_SYSTEM": "UTC",
"MEAN_ELEMENT_THEORY": "SGP4",
"EPOCH": "2025-03-19T23:32:45.488256",
"MEAN_MOTION": "2.13102598",
"ECCENTRICITY": "0.00078900",
"INCLINATION": "64.6152",
"RA_OF_ASC_NODE": "328.3420",
"ARG_OF_PERICENTER": "253.8050",
"MEAN_ANOMALY": "106.1643",
"EPHEMERIS_TYPE": "0",
"CLASSIFICATION_TYPE": "U",
"NORAD_CAT_ID": "45358",
"ELEMENT_SET_NO": "999",
"REV_AT_EPOCH": "3898",
"BSTAR": "0.00000000000000",
"MEAN_MOTION_DOT": "-0.00000053",
"MEAN_MOTION_DDOT": "0.0000000000000",
"SEMIMAJOR_AXIS": "25507.977",
"PERIOD": "675.731",
"APOAPSIS": "19149.968",
"PERIAPSIS": "19109.716",
"OBJECT_TYPE": "PAYLOAD",
"RCS_SIZE": "LARGE",
"COUNTRY_CODE": "CIS",
"LAUNCH_DATE": "2020-03-16",
"SITE": "PKMTR",
"DECAY_DATE": null,
"FILE": "4675094",
"GP_ID": "283584127",
"TLE_LINE0": "0 COSMOS 2545 (GLONASS)",
"TLE_LINE1": "1 45358U 20018A   25078.98108204 -.00000053  00000-0  00000-0 0  9999",
"TLE_LINE2": "2 45358  64.6152 328.3420 0007890 253.8050 106.1643  2.13102598 38980"
},
{
"CCSDS_OMM_VERS": "2.0",
"COMMENT": "GENERATED VIA SPACE-TRACK.ORG API",
"CREATION_DATE": "2025-03-20T06:26:34",
"ORIGINATOR": "18 SPCS",
"OBJECT_NAME": "COSMOS 2529 (GLONASS)",
"OBJECT_ID": "2018-086A",
"CENTER_NAME": "EARTH",
"REF_FRAME": "TEME",
"TIME_SYSTEM": "UTC",
"MEAN_ELEMENT_THEORY": "SGP4",
"EPOCH": "2025-03-19T22:31:12.169920",
"MEAN_MOTION": "2.13102063",
"ECCENTRICITY": "0.00081910",
"INCLINATION": "64.2945",
"RA_OF_ASC_NODE": "207.9377",
"ARG_OF_PERICENTER": "257.1225",
"MEAN_ANOMALY": "102.7722",
"EPHEMERIS_TYPE": "0",
"CLASSIFICATION_TYPE": "U",
"NORAD_CAT_ID": "43687",
"ELEMENT_SET_NO": "999",
"REV_AT_EPOCH": "4960",
"BSTAR": "0.00000000000000",
"MEAN_MOTION_DOT": "0.00000038",
"MEAN_MOTION_DDOT": "0.0000000000000",
"SEMIMAJOR_AXIS": "25508.019",
"PERIOD": "675.733",
"APOAPSIS": "19150.778",
"PERIAPSIS": "19108.991",
"OBJECT_TYPE": "PAYLOAD",
"RCS_SIZE": "LARGE",
"COUNTRY_CODE": "CIS",
"LAUNCH_DATE": "2018-11-03",
"SITE": "PKMTR",
"DECAY_DATE": null,
"FILE": "4674469",
"GP_ID": "283551287",
"TLE_LINE0": "0 COSMOS 2529 (GLONASS)",
"TLE_LINE1": "1 43687U 18086A   25078.93833530  .00000038  00000-0  00000+0 0  9997",
"TLE_LINE2": "2 43687  64.2945 207.9377 0008191 257.1225 102.7722  2.13102063 49606"
},
{
"CCSDS_OMM_VERS": "2.0",
"COMMENT": "GENERATED VIA SPACE-TRACK.ORG API",
"CREATION_DATE": "2025-03-20T14:16:17",
"ORIGINATOR": "18 SPCS",
"OBJECT_NAME": "COSMOS 2522 (GLONASS)",
"OBJECT_ID": "2017-055A",
"CENTER_NAME": "EARTH",
"REF_FRAME": "TEME",
"TIME_SYSTEM": "UTC",
"MEAN_ELEMENT_THEORY": "SGP4",
"EPOCH": "2025-03-19T21:07:29.493408",
"MEAN_MOTION": "2.13101860",
"ECCENTRICITY": "0.00072100",
"INCLINATION": "64.0786",
"RA_OF_ASC_NODE": "207.3528",
"ARG_OF_PERICENTER": "231.0069",
"MEAN_ANOMALY": "128.9156",
"EPHEMERIS_TYPE": "0",
"CLASSIFICATION_TYPE": "U",
"NORAD_CAT_ID": "42939",
"ELEMENT_SET_NO": "999",
"REV_AT_EPOCH": "5829",
"BSTAR": "0.00000000000000",
"MEAN_MOTION_DOT": "0.00000038",
"MEAN_MOTION_DDOT": "0.0000000000000",
"SEMIMAJOR_AXIS": "25508.036",
"PERIOD": "675.733",
"APOAPSIS": "19148.292",
"PERIAPSIS": "19111.509",
"OBJECT_TYPE": "PAYLOAD",
"RCS_SIZE": "LARGE",
"COUNTRY_CODE": "CIS",
"LAUNCH_DATE": "2017-09-22",
"SITE": "PKMTR",
"DECAY_DATE": null,
"FILE": "4674794",
"GP_ID": "283559018",
"TLE_LINE0": "0 COSMOS 2522 (GLONASS)",
"TLE_LINE1": "1 42939U 17055A   25078.88020247  .00000038  00000-0  00000+0 0  9998",
"TLE_LINE2": "2 42939  64.0786 207.3528 0007210 231.0069 128.9156  2.13101860 58296"
},
{
"CCSDS_OMM_VERS": "2.0",
"COMMENT": "GENERATED VIA SPACE-TRACK.ORG API",
"CREATION_DATE": "2025-03-20T19:29:49",
"ORIGINATOR": "18 SPCS",
"OBJECT_NAME": "COSMOS 2434 (GLONASS)",
"OBJECT_ID": "2007-065A",
"CENTER_NAME": "EARTH",
"REF_FRAME": "TEME",
"TIME_SYSTEM": "UTC",
"MEAN_ELEMENT_THEORY": "SGP4",
"EPOCH": "2025-03-19T18:43:26.819328",
"MEAN_MOTION": "2.13101415",
"ECCENTRICITY": "0.00034380",
"INCLINATION": "64.3169",
"RA_OF_ASC_NODE": "207.2483",
"ARG_OF_PERICENTER": "73.2079",
"MEAN_ANOMALY": "260.1060",
"EPHEMERIS_TYPE": "0",
"CLASSIFICATION_TYPE": "U",
"NORAD_CAT_ID": "32393",
"ELEMENT_SET_NO": "999",
"REV_AT_EPOCH": "13408",
"BSTAR": "0.00000000000000",
"MEAN_MOTION_DOT": "0.00000038",
"MEAN_MOTION_DDOT": "0.0000000000000",
"SEMIMAJOR_AXIS": "25508.071",
"PERIOD": "675.735",
"APOAPSIS": "19138.706",
"PERIAPSIS": "19121.166",
"OBJECT_TYPE": "PAYLOAD",
"RCS_SIZE": "LARGE",
"COUNTRY_CODE": "CIS",
"LAUNCH_DATE": "2007-12-25",
"SITE": "TTMTR",
"DECAY_DATE": null,
"FILE": "4675094",
"GP_ID": "283576754",
"TLE_LINE0": "0 COSMOS 2434 (GLONASS)",
"TLE_LINE1": "1 32393U 07065A   25078.78017152  .00000038  00000-0  00000-0 0  9992",
"TLE_LINE2": "2 32393  64.3169 207.2483 0003438  73.2079 260.1060  2.13101415134082"
},
{
"CCSDS_OMM_VERS": "2.0",
"COMMENT": "GENERATED VIA SPACE-TRACK.ORG API",
"CREATION_DATE": "2025-03-20T19:29:49",
"ORIGINATOR": "18 SPCS",
"OBJECT_NAME": "COSMOS 2534 (GLONASS)",
"OBJECT_ID": "2019-030A",
"CENTER_NAME": "EARTH",
"REF_FRAME": "TEME",
"TIME_SYSTEM": "UTC",
"MEAN_ELEMENT_THEORY": "SGP4",
"EPOCH": "2025-03-19T17:04:22.219392",
"MEAN_MOTION": "2.13102347",
"ECCENTRICITY": "0.00100510",
"INCLINATION": "64.3678",
"RA_OF_ASC_NODE": "207.9248",
"ARG_OF_PERICENTER": "283.2474",
"MEAN_ANOMALY": "36.8041",
"EPHEMERIS_TYPE": "0",
"CLASSIFICATION_TYPE": "U",
"NORAD_CAT_ID": "44299",
"ELEMENT_SET_NO": "999",
"REV_AT_EPOCH": "4523",
"BSTAR": "0.00000000000000",
"MEAN_MOTION_DOT": "0.00000039",
"MEAN_MOTION_DDOT": "0.0000000000000",
"SEMIMAJOR_AXIS": "25507.997",
"PERIOD": "675.732",
"APOAPSIS": "19155.500",
"PERIAPSIS": "19104.224",
"OBJECT_TYPE": "PAYLOAD",
"RCS_SIZE": "LARGE",
"COUNTRY_CODE": "CIS",
"LAUNCH_DATE": "2019-05-27",
"SITE": "PKMTR",
"DECAY_DATE": null,
"FILE": "4675094",
"GP_ID": "283583822",
"TLE_LINE0": "0 COSMOS 2534 (GLONASS)",
"TLE_LINE1": "1 44299U 19030A   25078.71136828  .00000039  00000-0  00000-0 0  9991",
"TLE_LINE2": "2 44299  64.3678 207.9248 0010051 283.2474  36.8041  2.13102347 45232"
},
{
"CCSDS_OMM_VERS": "2.0",
"COMMENT": "GENERATED VIA SPACE-TRACK.ORG API",
"CREATION_DATE": "2025-03-20T19:29:49",
"ORIGINATOR": "18 SPCS",
"OBJECT_NAME": "COSMOS 2547 (GLONASS)",
"OBJECT_ID": "2020-075A",
"CENTER_NAME": "EARTH",
"REF_FRAME": "TEME",
"TIME_SYSTEM": "UTC",
"MEAN_ELEMENT_THEORY": "SGP4",
"EPOCH": "2025-03-19T16:44:24.108864",
"MEAN_MOTION": "2.13103114",
"ECCENTRICITY": "0.00067780",
"INCLINATION": "64.5975",
"RA_OF_ASC_NODE": "207.6488",
"ARG_OF_PERICENTER": "233.5518",
"MEAN_ANOMALY": "126.3717",
"EPHEMERIS_TYPE": "0",
"CLASSIFICATION_TYPE": "U",
"NORAD_CAT_ID": "46805",
"ELEMENT_SET_NO": "999",
"REV_AT_EPOCH": "3422",
"BSTAR": "0.00000000000000",
"MEAN_MOTION_DOT": "0.00000038",
"MEAN_MOTION_DDOT": "0.0000000000000",
"SEMIMAJOR_AXIS": "25507.936",
"PERIOD": "675.729",
"APOAPSIS": "19147.090",
"PERIAPSIS": "19112.511",
"OBJECT_TYPE": "PAYLOAD",
"RCS_SIZE": "LARGE",
"COUNTRY_CODE": "CIS",
"LAUNCH_DATE": "2020-10-25",
"SITE": "PKMTR",
"DECAY_DATE": null,
"FILE": "4675094",
"GP_ID": "283584533",
"TLE_LINE0": "0 COSMOS 2547 (GLONASS)",
"TLE_LINE1": "1 46805U 20075A   25078.69750126  .00000038  00000-0  00000-0 0  9996",
"TLE_LINE2": "2 46805  64.5975 207.6488 0006778 233.5518 126.3717  2.13103114 34225"
},
{
"CCSDS_OMM_VERS": "2.0",
"COMMENT": "GENERATED VIA SPACE-TRACK.ORG API",
"CREATION_DATE": "2025-03-19T17:43:14",
"ORIGINATOR": "18 SPCS",
"OBJECT_NAME": "COSMOS 2432 (GLONASS)",
"OBJECT_ID": "2007-052B",
"CENTER_NAME": "EARTH",
"REF_FRAME": "TEME",
"TIME_SYSTEM": "UTC",
"MEAN_ELEMENT_THEORY": "SGP4",
"EPOCH": "2025-03-19T12:07:07.879584",
"MEAN_MOTION": "2.13103303",
"ECCENTRICITY": "0.00107780",
"INCLINATION": "65.8329",
"RA_OF_ASC_NODE": "331.3151",
"ARG_OF_PERICENTER": "333.0569",
"MEAN_ANOMALY": "202.8190",
"EPHEMERIS_TYPE": "0",
"CLASSIFICATION_TYPE": "U",
"NORAD_CAT_ID": "32276",
"ELEMENT_SET_NO": "999",
"REV_AT_EPOCH": "13539",
"BSTAR": "0.00000000000000",
"MEAN_MOTION_DOT": "-0.00000057",
"MEAN_MOTION_DDOT": "0.0000000000000",
"SEMIMAJOR_AXIS": "25507.920",
"PERIOD": "675.729",
"APOAPSIS": "19157.278",
"PERIAPSIS": "19102.293",
"OBJECT_TYPE": "PAYLOAD",
"RCS_SIZE": "LARGE",
"COUNTRY_CODE": "CIS",
"LAUNCH_DATE": "2007-10-26",
"SITE": "TTMTR",
"DECAY_DATE": null,
"FILE": "4674121",
"GP_ID": "283495151",
"TLE_LINE0": "0 COSMOS 2432 (GLONASS)",
"TLE_LINE1": "1 32276U 07052B   25078.50495231 -.00000057  00000-0  00000-0 0  9998",
"TLE_LINE2": "2 32276  65.8329 331.3151 0010778 333.0569 202.8190  2.13103303135393"
}
]